<?xml version="1.0" encoding="UTF-8"?>
<kml xmlns="http://www.opengis.net/kml/2.2">
 <Document>
  <name>QGroundControl Plan KML</name>
  <open>1</open>
  <Style id="BalloonStyle">
   <BalloonStyle>
    <text>$[description]</text>
   </BalloonStyle>
  </Style>
  <Style id="MissionLineStyle">
   <LineStyle>
    <color>ff1c78be</color>
    <width>4</width>
   </LineStyle>
  </Style>
  <Style id="SurveyPolygonStyle">
   <PolyStyle>
    <color>7f008000</color>
   </PolyStyle>
   <LineStyle>
    <color>7f008000</color>
   </LineStyle>
  </Style>
  <Folder>
   <name>Items</name>
   <Placemark>
    <name>0 </name>
    <styleUrl>#BalloonStyle</styleUrl>
    <description><![CDATA[Index: 0
Waypoint
Alt AMSL: 6.00 m
Alt Rel: 0.00 m
Lat: 51.4620610
Lon: -0.3163355
]]></description>
    <Point>
     <altitudeMode>absolute</altitudeMode>
     <coordinates>-0.3163355,51.4620610,6.00</coordinates>
     <extrude>1</extrude>
    </Point>
   </Placemark>
   <Placemark>
    <name>1 </name>
    <styleUrl>#BalloonStyle</styleUrl>
    <description><![CDATA[Index: 1
Waypoint
Alt AMSL: 56.00 m
Alt Rel: 50.00 m
Lat: 51.4619204
Lon: -0.3164436
]]></description>
    <Point>
     <altitudeMode>absolute</altitudeMode>
     <coordinates>-0.3164436,51.4619204,56.00</coordinates>
     <extrude>1</extrude>
    </Point>
   </Placemark>
   <Placemark>
    <name>2 </name>
    <styleUrl>#BalloonStyle</styleUrl>
    <description><![CDATA[Index: 2
Waypoint
Alt AMSL: 56.00 m
Alt Rel: 50.00 m
Lat: 51.4618375
Lon: -0.3162318
]]></description>
    <Point>
     <altitudeMode>absolute</altitudeMode>
     <coordinates>-0.3162318,51.4618375,56.00</coordinates>
     <extrude>1</extrude>
    </Point>
   </Placemark>
   <Placemark>
    <name>3 </name>
    <styleUrl>#BalloonStyle</styleUrl>
    <description><![CDATA[Index: 3
Waypoint
Alt AMSL: 56.00 m
Alt Rel: 50.00 m
Lat: 51.4617070
Lon: -0.3160470
]]></description>
    <Point>
     <altitudeMode>absolute</altitudeMode>
     <coordinates>-0.3160470,51.4617070,56.00</coordinates>
     <extrude>1</extrude>
    </Point>
   </Placemark>
   <Placemark>
    <name>4 </name>
    <styleUrl>#BalloonStyle</styleUrl>
    <description><![CDATA[Index: 4
Waypoint
Alt AMSL: 56.00 m
Alt Rel: 50.00 m
Lat: 51.4616143
Lon: -0.3160380
]]></description>
    <Point>
     <altitudeMode>absolute</altitudeMode>
     <coordinates>-0.3160380,51.4616143,56.00</coordinates>
     <extrude>1</extrude>
    </Point>
   </Placemark>
   <Placemark>
    <name>5 </name>
    <styleUrl>#BalloonStyle</styleUrl>
    <description><![CDATA[Index: 5
Waypoint
Alt AMSL: 56.00 m
Alt Rel: 50.00 m
Lat: 51.4615104
Lon: -0.3160493
]]></description>
    <Point>
     <altitudeMode>absolute</altitudeMode>
     <coordinates>-0.3160493,51.4615104,56.00</coordinates>
     <extrude>1</extrude>
    </Point>
   </Placemark>
   <Placemark>
    <name>6 </name>
    <styleUrl>#BalloonStyle</styleUrl>
    <description><![CDATA[Index: 6
Waypoint
Alt AMSL: 56.00 m
Alt Rel: 50.00 m
Lat: 51.4615834
Lon: -0.3163445
]]></description>
    <Point>
     <altitudeMode>absolute</altitudeMode>
     <coordinates>-0.3163445,51.4615834,56.00</coordinates>
     <extrude>1</extrude>
    </Point>
   </Placemark>
   <Placemark>
    <name>7 </name>
    <styleUrl>#BalloonStyle</styleUrl>
    <description><![CDATA[Index: 7
Waypoint
Alt AMSL: 56.00 m
Alt Rel: 50.00 m
Lat: 51.4617631
Lon: -0.3163850
]]></description>
    <Point>
     <altitudeMode>absolute</altitudeMode>
     <coordinates>-0.3163850,51.4617631,56.00</coordinates>
     <extrude>1</extrude>
    </Point>
   </Placemark>
   <Placemark>
    <name>8 </name>
    <styleUrl>#BalloonStyle</styleUrl>
    <description><![CDATA[Index: 8
Waypoint
Alt AMSL: 56.00 m
Alt Rel: 50.00 m
Lat: 51.4619035
Lon: -0.3165991
]]></description>
    <Point>
     <altitudeMode>absolute</altitudeMode>
     <coordinates>-0.3165991,51.4619035,56.00</coordinates>
     <extrude>1</extrude>
    </Point>
   </Placemark>
   <Placemark>
    <name>9 </name>
    <styleUrl>#BalloonStyle</styleUrl>
    <description><![CDATA[Index: 9
Waypoint
Alt AMSL: 56.00 m
Alt Rel: 50.00 m
Lat: 51.4619134
Lon: -0.3167613
]]></description>
    <Point>
     <altitudeMode>absolute</altitudeMode>
     <coordinates>-0.3167613,51.4619134,56.00</coordinates>
     <extrude>1</extrude>
    </Point>
   </Placemark>
   <Placemark>
    <name>10 </name>
    <styleUrl>#BalloonStyle</styleUrl>
    <description><![CDATA[Index: 10
Waypoint
Alt AMSL: 56.00 m
Alt Rel: 50.00 m
Lat: 51.4617772
Lon: -0.3168222
]]></description>
    <Point>
     <altitudeMode>absolute</altitudeMode>
     <coordinates>-0.3168222,51.4617772,56.00</coordinates>
     <extrude>1</extrude>
    </Point>
   </Placemark>
   <Placemark>
    <name>11 </name>
    <styleUrl>#BalloonStyle</styleUrl>
    <description><![CDATA[Index: 11
Waypoint
Alt AMSL: 56.00 m
Alt Rel: 50.00 m
Lat: 51.4617154
Lon: -0.3166306
]]></description>
    <Point>
     <altitudeMode>absolute</altitudeMode>
     <coordinates>-0.3166306,51.4617154,56.00</coordinates>
     <extrude>1</extrude>
    </Point>
   </Placemark>
   <Placemark>
    <name>12 </name>
    <styleUrl>#BalloonStyle</styleUrl>
    <description><![CDATA[Index: 12
Waypoint
Alt AMSL: 56.00 m
Alt Rel: 50.00 m
Lat: 51.4616424
Lon: -0.3166374
]]></description>
    <Point>
     <altitudeMode>absolute</altitudeMode>
     <coordinates>-0.3166374,51.4616424,56.00</coordinates>
     <extrude>1</extrude>
    </Point>
   </Placemark>
   <Placemark>
    <name>13 </name>
    <styleUrl>#BalloonStyle</styleUrl>
    <description><![CDATA[Index: 13
Waypoint
Alt AMSL: 56.00 m
Alt Rel: 50.00 m
Lat: 51.4615371
Lon: -0.3165608
]]></description>
    <Point>
     <altitudeMode>absolute</altitudeMode>
     <coordinates>-0.3165608,51.4615371,56.00</coordinates>
     <extrude>1</extrude>
    </Point>
   </Placemark>
   <Placemark>
    <name>14 </name>
    <styleUrl>#BalloonStyle</styleUrl>
    <description><![CDATA[Index: 14
Waypoint
Alt AMSL: 56.00 m
Alt Rel: 50.00 m
Lat: 51.4614753
Lon: -0.3164031
]]></description>
    <Point>
     <altitudeMode>absolute</altitudeMode>
     <coordinates>-0.3164031,51.4614753,56.00</coordinates>
     <extrude>1</extrude>
    </Point>
   </Placemark>
  </Folder>
  <Placemark>
   <styleUrl>#MissionLineStyle</styleUrl>
   <name>Flight Path</name>
   <visibility>1</visibility>
   <LookAt>
    <latitude>51.4620610</latitude>
    <longitude>-0.3163355</longitude>
    <altitude>-0.32</altitude>
    <heading>-100</heading>
    <tilt>45</tilt>
    <range>2500</range>
   </LookAt>
   <LineString>
    <extruder>1</extruder>
    <tessellate>1</tessellate>
    <altitudeMode>absolute</altitudeMode>
    <coordinates>-0.3163355,51.4620610,6.00
-0.3164436,51.4619204,56.00
-0.3162318,51.4618375,56.00
-0.3160470,51.4617070,56.00
-0.3160380,51.4616143,56.00
-0.3160493,51.4615104,56.00
-0.3163445,51.4615834,56.00
-0.3163850,51.4617631,56.00
-0.3165991,51.4619035,56.00
-0.3167613,51.4619134,56.00
-0.3168222,51.4617772,56.00
-0.3166306,51.4617154,56.00
-0.3166374,51.4616424,56.00
-0.3165608,51.4615371,56.00
-0.3164031,51.4614753,56.00
</coordinates>
   </LineString>
  </Placemark>
 </Document>
</kml>
