<?xml version="1.0" encoding="UTF-8"?>
<kml xmlns="http://www.opengis.net/kml/2.2">
 <Document>
  <name>QGroundControl Plan KML</name>
  <open>1</open>
  <Style id="BalloonStyle">
   <BalloonStyle>
    <text>$[description]</text>
   </BalloonStyle>
  </Style>
  <Style id="MissionLineStyle">
   <LineStyle>
    <color>ff1c78be</color>
    <width>4</width>
   </LineStyle>
  </Style>
  <Style id="SurveyPolygonStyle">
   <PolyStyle>
    <color>7f008000</color>
   </PolyStyle>
   <LineStyle>
    <color>7f008000</color>
   </LineStyle>
  </Style>
  <Folder>
   <name>Items</name>
   <Placemark>
    <name>0 </name>
    <styleUrl>#BalloonStyle</styleUrl>
    <description><![CDATA[Index: 0
Waypoint
Alt AMSL: 3.00 m
Alt Rel: 0.00 m
Lat: 51.4624242
Lon: -0.3165728
]]></description>
    <Point>
     <altitudeMode>absolute</altitudeMode>
     <coordinates>-0.3165728,51.4624242,3.00</coordinates>
     <extrude>1</extrude>
    </Point>
   </Placemark>
   <Placemark>
    <name>1 </name>
    <styleUrl>#BalloonStyle</styleUrl>
    <description><![CDATA[Index: 1
Waypoint
Alt AMSL: 53.00 m
Alt Rel: 50.00 m
Lat: 51.4624647
Lon: -0.3166472
]]></description>
    <Point>
     <altitudeMode>absolute</altitudeMode>
     <coordinates>-0.3166472,51.4624647,53.00</coordinates>
     <extrude>1</extrude>
    </Point>
   </Placemark>
   <Placemark>
    <name>2 </name>
    <styleUrl>#BalloonStyle</styleUrl>
    <description><![CDATA[Index: 2
Waypoint
Alt AMSL: 53.00 m
Alt Rel: 50.00 m
Lat: 51.4624529
Lon: -0.3166217
]]></description>
    <Point>
     <altitudeMode>absolute</altitudeMode>
     <coordinates>-0.3166217,51.4624529,53.00</coordinates>
     <extrude>1</extrude>
    </Point>
   </Placemark>
   <Placemark>
    <name>3 </name>
    <styleUrl>#BalloonStyle</styleUrl>
    <description><![CDATA[Index: 3
Waypoint
Alt AMSL: 53.00 m
Alt Rel: 50.00 m
Lat: 51.4624405
Lon: -0.3166048
]]></description>
    <Point>
     <altitudeMode>absolute</altitudeMode>
     <coordinates>-0.3166048,51.4624405,53.00</coordinates>
     <extrude>1</extrude>
    </Point>
   </Placemark>
   <Placemark>
    <name>4 </name>
    <styleUrl>#BalloonStyle</styleUrl>
    <description><![CDATA[Index: 4
Waypoint
Alt AMSL: 53.00 m
Alt Rel: 50.00 m
Lat: 51.4624258
Lon: -0.3165854
]]></description>
    <Point>
     <altitudeMode>absolute</altitudeMode>
     <coordinates>-0.3165854,51.4624258,53.00</coordinates>
     <extrude>1</extrude>
    </Point>
   </Placemark>
   <Placemark>
    <name>5 </name>
    <styleUrl>#BalloonStyle</styleUrl>
    <description><![CDATA[Index: 5
Waypoint
Alt AMSL: 53.00 m
Alt Rel: 50.00 m
Lat: 51.4624125
Lon: -0.3165701
]]></description>
    <Point>
     <altitudeMode>absolute</altitudeMode>
     <coordinates>-0.3165701,51.4624125,53.00</coordinates>
     <extrude>1</extrude>
    </Point>
   </Placemark>
   <Placemark>
    <name>6 </name>
    <styleUrl>#BalloonStyle</styleUrl>
    <description><![CDATA[Index: 6
Waypoint
Alt AMSL: 53.00 m
Alt Rel: 50.00 m
Lat: 51.4624029
Lon: -0.3165588
]]></description>
    <Point>
     <altitudeMode>absolute</altitudeMode>
     <coordinates>-0.3165588,51.4624029,53.00</coordinates>
     <extrude>1</extrude>
    </Point>
   </Placemark>
   <Placemark>
    <name>7 </name>
    <styleUrl>#BalloonStyle</styleUrl>
    <description><![CDATA[Index: 7
Waypoint
Alt AMSL: 53.00 m
Alt Rel: 50.00 m
Lat: 51.4623873
Lon: -0.3165399
]]></description>
    <Point>
     <altitudeMode>absolute</altitudeMode>
     <coordinates>-0.3165399,51.4623873,53.00</coordinates>
     <extrude>1</extrude>
    </Point>
   </Placemark>
   <Placemark>
    <name>8 </name>
    <styleUrl>#BalloonStyle</styleUrl>
    <description><![CDATA[Index: 8
Waypoint
Alt AMSL: 53.00 m
Alt Rel: 50.00 m
Lat: 51.4623711
Lon: -0.3165262
]]></description>
    <Point>
     <altitudeMode>absolute</altitudeMode>
     <coordinates>-0.3165262,51.4623711,53.00</coordinates>
     <extrude>1</extrude>
    </Point>
   </Placemark>
   <Placemark>
    <name>9 </name>
    <styleUrl>#BalloonStyle</styleUrl>
    <description><![CDATA[Index: 9
Waypoint
Alt AMSL: 53.00 m
Alt Rel: 50.00 m
Lat: 51.4623590
Lon: -0.3165118
]]></description>
    <Point>
     <altitudeMode>absolute</altitudeMode>
     <coordinates>-0.3165118,51.4623590,53.00</coordinates>
     <extrude>1</extrude>
    </Point>
   </Placemark>
   <Placemark>
    <name>10 </name>
    <styleUrl>#BalloonStyle</styleUrl>
    <description><![CDATA[Index: 10
Waypoint
Alt AMSL: 53.00 m
Alt Rel: 50.00 m
Lat: 51.4623459
Lon: -0.3164986
]]></description>
    <Point>
     <altitudeMode>absolute</altitudeMode>
     <coordinates>-0.3164986,51.4623459,53.00</coordinates>
     <extrude>1</extrude>
    </Point>
   </Placemark>
   <Placemark>
    <name>11 </name>
    <styleUrl>#BalloonStyle</styleUrl>
    <description><![CDATA[Index: 11
Waypoint
Alt AMSL: 53.00 m
Alt Rel: 50.00 m
Lat: 51.4623351
Lon: -0.3164853
]]></description>
    <Point>
     <altitudeMode>absolute</altitudeMode>
     <coordinates>-0.3164853,51.4623351,53.00</coordinates>
     <extrude>1</extrude>
    </Point>
   </Placemark>
   <Placemark>
    <name>12 </name>
    <styleUrl>#BalloonStyle</styleUrl>
    <description><![CDATA[Index: 12
Waypoint
Alt AMSL: 53.00 m
Alt Rel: 50.00 m
Lat: 51.4623218
Lon: -0.3164817
]]></description>
    <Point>
     <altitudeMode>absolute</altitudeMode>
     <coordinates>-0.3164817,51.4623218,53.00</coordinates>
     <extrude>1</extrude>
    </Point>
   </Placemark>
   <Placemark>
    <name>13 </name>
    <styleUrl>#BalloonStyle</styleUrl>
    <description><![CDATA[Index: 13
Waypoint
Alt AMSL: 53.00 m
Alt Rel: 50.00 m
Lat: 51.4623246
Lon: -0.3165032
]]></description>
    <Point>
     <altitudeMode>absolute</altitudeMode>
     <coordinates>-0.3165032,51.4623246,53.00</coordinates>
     <extrude>1</extrude>
    </Point>
   </Placemark>
   <Placemark>
    <name>14 </name>
    <styleUrl>#BalloonStyle</styleUrl>
    <description><![CDATA[Index: 14
Waypoint
Alt AMSL: 53.00 m
Alt Rel: 50.00 m
Lat: 51.4623358
Lon: -0.3165205
]]></description>
    <Point>
     <altitudeMode>absolute</altitudeMode>
     <coordinates>-0.3165205,51.4623358,53.00</coordinates>
     <extrude>1</extrude>
    </Point>
   </Placemark>
   <Placemark>
    <name>15 </name>
    <styleUrl>#BalloonStyle</styleUrl>
    <description><![CDATA[Index: 15
Waypoint
Alt AMSL: 53.00 m
Alt Rel: 50.00 m
Lat: 51.4623501
Lon: -0.3165282
]]></description>
    <Point>
     <altitudeMode>absolute</altitudeMode>
     <coordinates>-0.3165282,51.4623501,53.00</coordinates>
     <extrude>1</extrude>
    </Point>
   </Placemark>
   <Placemark>
    <name>16 </name>
    <styleUrl>#BalloonStyle</styleUrl>
    <description><![CDATA[Index: 16
Waypoint
Alt AMSL: 53.00 m
Alt Rel: 50.00 m
Lat: 51.4623625
Lon: -0.3165404
]]></description>
    <Point>
     <altitudeMode>absolute</altitudeMode>
     <coordinates>-0.3165404,51.4623625,53.00</coordinates>
     <extrude>1</extrude>
    </Point>
   </Placemark>
   <Placemark>
    <name>17 </name>
    <styleUrl>#BalloonStyle</styleUrl>
    <description><![CDATA[Index: 17
Waypoint
Alt AMSL: 53.00 m
Alt Rel: 50.00 m
Lat: 51.4623536
Lon: -0.3165517
]]></description>
    <Point>
     <altitudeMode>absolute</altitudeMode>
     <coordinates>-0.3165517,51.4623536,53.00</coordinates>
     <extrude>1</extrude>
    </Point>
   </Placemark>
   <Placemark>
    <name>18 </name>
    <styleUrl>#BalloonStyle</styleUrl>
    <description><![CDATA[Index: 18
Waypoint
Alt AMSL: 53.00 m
Alt Rel: 50.00 m
Lat: 51.4623440
Lon: -0.3165456
]]></description>
    <Point>
     <altitudeMode>absolute</altitudeMode>
     <coordinates>-0.3165456,51.4623440,53.00</coordinates>
     <extrude>1</extrude>
    </Point>
   </Placemark>
   <Placemark>
    <name>19 </name>
    <styleUrl>#BalloonStyle</styleUrl>
    <description><![CDATA[Index: 19
Waypoint
Alt AMSL: 53.00 m
Alt Rel: 50.00 m
Lat: 51.4623549
Lon: -0.3165874
]]></description>
    <Point>
     <altitudeMode>absolute</altitudeMode>
     <coordinates>-0.3165874,51.4623549,53.00</coordinates>
     <extrude>1</extrude>
    </Point>
   </Placemark>
   <Placemark>
    <name>20 </name>
    <styleUrl>#BalloonStyle</styleUrl>
    <description><![CDATA[Index: 20
Waypoint
Alt AMSL: 53.00 m
Alt Rel: 50.00 m
Lat: 51.4623628
Lon: -0.3165701
]]></description>
    <Point>
     <altitudeMode>absolute</altitudeMode>
     <coordinates>-0.3165701,51.4623628,53.00</coordinates>
     <extrude>1</extrude>
    </Point>
   </Placemark>
   <Placemark>
    <name>21 </name>
    <styleUrl>#BalloonStyle</styleUrl>
    <description><![CDATA[Index: 21
Waypoint
Alt AMSL: 53.00 m
Alt Rel: 50.00 m
Lat: 51.4623787
Lon: -0.3165752
]]></description>
    <Point>
     <altitudeMode>absolute</altitudeMode>
     <coordinates>-0.3165752,51.4623787,53.00</coordinates>
     <extrude>1</extrude>
    </Point>
   </Placemark>
   <Placemark>
    <name>22 </name>
    <styleUrl>#BalloonStyle</styleUrl>
    <description><![CDATA[Index: 22
Waypoint
Alt AMSL: 53.00 m
Alt Rel: 50.00 m
Lat: 51.4623806
Lon: -0.3165997
]]></description>
    <Point>
     <altitudeMode>absolute</altitudeMode>
     <coordinates>-0.3165997,51.4623806,53.00</coordinates>
     <extrude>1</extrude>
    </Point>
   </Placemark>
   <Placemark>
    <name>23 </name>
    <styleUrl>#BalloonStyle</styleUrl>
    <description><![CDATA[Index: 23
Waypoint
Alt AMSL: 53.00 m
Alt Rel: 50.00 m
Lat: 51.4623972
Lon: -0.3166166
]]></description>
    <Point>
     <altitudeMode>absolute</altitudeMode>
     <coordinates>-0.3166166,51.4623972,53.00</coordinates>
     <extrude>1</extrude>
    </Point>
   </Placemark>
   <Placemark>
    <name>24 </name>
    <styleUrl>#BalloonStyle</styleUrl>
    <description><![CDATA[Index: 24
Waypoint
Alt AMSL: 53.00 m
Alt Rel: 50.00 m
Lat: 51.4624029
Lon: -0.3165977
]]></description>
    <Point>
     <altitudeMode>absolute</altitudeMode>
     <coordinates>-0.3165977,51.4624029,53.00</coordinates>
     <extrude>1</extrude>
    </Point>
   </Placemark>
   <Placemark>
    <name>25 </name>
    <styleUrl>#BalloonStyle</styleUrl>
    <description><![CDATA[Index: 25
Waypoint
Alt AMSL: 53.00 m
Alt Rel: 50.00 m
Lat: 51.4624217
Lon: -0.3166278
]]></description>
    <Point>
     <altitudeMode>absolute</altitudeMode>
     <coordinates>-0.3166278,51.4624217,53.00</coordinates>
     <extrude>1</extrude>
    </Point>
   </Placemark>
   <Placemark>
    <name>26 </name>
    <styleUrl>#BalloonStyle</styleUrl>
    <description><![CDATA[Index: 26
Waypoint
Alt AMSL: 53.00 m
Alt Rel: 50.00 m
Lat: 51.4624118
Lon: -0.3166447
]]></description>
    <Point>
     <altitudeMode>absolute</altitudeMode>
     <coordinates>-0.3166447,51.4624118,53.00</coordinates>
     <extrude>1</extrude>
    </Point>
   </Placemark>
   <Placemark>
    <name>27 </name>
    <styleUrl>#BalloonStyle</styleUrl>
    <description><![CDATA[Index: 27
Waypoint
Alt AMSL: 53.00 m
Alt Rel: 50.00 m
Lat: 51.4624125
Lon: -0.3166672
]]></description>
    <Point>
     <altitudeMode>absolute</altitudeMode>
     <coordinates>-0.3166672,51.4624125,53.00</coordinates>
     <extrude>1</extrude>
    </Point>
   </Placemark>
   <Placemark>
    <name>28 </name>
    <styleUrl>#BalloonStyle</styleUrl>
    <description><![CDATA[Index: 28
Waypoint
Alt AMSL: 53.00 m
Alt Rel: 50.00 m
Lat: 51.4624325
Lon: -0.3166717
]]></description>
    <Point>
     <altitudeMode>absolute</altitudeMode>
     <coordinates>-0.3166717,51.4624325,53.00</coordinates>
     <extrude>1</extrude>
    </Point>
   </Placemark>
   <Placemark>
    <name>29 </name>
    <styleUrl>#BalloonStyle</styleUrl>
    <description><![CDATA[Index: 29
Waypoint
Alt AMSL: 53.00 m
Alt Rel: 50.00 m
Lat: 51.4624395
Lon: -0.3166666
]]></description>
    <Point>
     <altitudeMode>absolute</altitudeMode>
     <coordinates>-0.3166666,51.4624395,53.00</coordinates>
     <extrude>1</extrude>
    </Point>
   </Placemark>
   <Placemark>
    <name>30 </name>
    <styleUrl>#BalloonStyle</styleUrl>
    <description><![CDATA[Index: 30
Waypoint
Alt AMSL: 53.00 m
Alt Rel: 50.00 m
Lat: 51.4624427
Lon: -0.3166932
]]></description>
    <Point>
     <altitudeMode>absolute</altitudeMode>
     <coordinates>-0.3166932,51.4624427,53.00</coordinates>
     <extrude>1</extrude>
    </Point>
   </Placemark>
  </Folder>
  <Placemark>
   <styleUrl>#MissionLineStyle</styleUrl>
   <name>Flight Path</name>
   <visibility>1</visibility>
   <LookAt>
    <latitude>51.4624242</latitude>
    <longitude>-0.3165728</longitude>
    <altitude>-0.32</altitude>
    <heading>-100</heading>
    <tilt>45</tilt>
    <range>2500</range>
   </LookAt>
   <LineString>
    <extruder>1</extruder>
    <tessellate>1</tessellate>
    <altitudeMode>absolute</altitudeMode>
    <coordinates>-0.3165728,51.4624242,3.00
-0.3166472,51.4624647,53.00
-0.3166217,51.4624529,53.00
-0.3166048,51.4624405,53.00
-0.3165854,51.4624258,53.00
-0.3165701,51.4624125,53.00
-0.3165588,51.4624029,53.00
-0.3165399,51.4623873,53.00
-0.3165262,51.4623711,53.00
-0.3165118,51.4623590,53.00
-0.3164986,51.4623459,53.00
-0.3164853,51.4623351,53.00
-0.3164817,51.4623218,53.00
-0.3165032,51.4623246,53.00
-0.3165205,51.4623358,53.00
-0.3165282,51.4623501,53.00
-0.3165404,51.4623625,53.00
-0.3165517,51.4623536,53.00
-0.3165456,51.4623440,53.00
-0.3165874,51.4623549,53.00
-0.3165701,51.4623628,53.00
-0.3165752,51.4623787,53.00
-0.3165997,51.4623806,53.00
-0.3166166,51.4623972,53.00
-0.3165977,51.4624029,53.00
-0.3166278,51.4624217,53.00
-0.3166447,51.4624118,53.00
-0.3166672,51.4624125,53.00
-0.3166717,51.4624325,53.00
-0.3166666,51.4624395,53.00
-0.3166932,51.4624427,53.00
</coordinates>
   </LineString>
  </Placemark>
 </Document>
</kml>
