<?xml version="1.0" encoding="UTF-8"?>
<kml xmlns="http://www.opengis.net/kml/2.2">
 <Document>
  <name>QGroundControl Plan KML</name>
  <open>1</open>
  <Style id="BalloonStyle">
   <BalloonStyle>
    <text>$[description]</text>
   </BalloonStyle>
  </Style>
  <Style id="MissionLineStyle">
   <LineStyle>
    <color>ff1c78be</color>
    <width>4</width>
   </LineStyle>
  </Style>
  <Style id="SurveyPolygonStyle">
   <PolyStyle>
    <color>7f008000</color>
   </PolyStyle>
   <LineStyle>
    <color>7f008000</color>
   </LineStyle>
  </Style>
  <Folder>
   <name>Items</name>
   <Placemark>
    <name>0 </name>
    <styleUrl>#BalloonStyle</styleUrl>
    <description><![CDATA[Index: 0
Waypoint
Alt AMSL: 6.00 m
Alt Rel: 0.00 m
Lat: 51.4621112
Lon: -0.3162915
]]></description>
    <Point>
     <altitudeMode>absolute</altitudeMode>
     <coordinates>-0.3162915,51.4621112,6.00</coordinates>
     <extrude>1</extrude>
    </Point>
   </Placemark>
   <Placemark>
    <name>1 </name>
    <styleUrl>#BalloonStyle</styleUrl>
    <description><![CDATA[Index: 1
Waypoint
Alt AMSL: 56.00 m
Alt Rel: 50.00 m
Lat: 51.4619975
Lon: -0.3163018
]]></description>
    <Point>
     <altitudeMode>absolute</altitudeMode>
     <coordinates>-0.3163018,51.4619975,56.00</coordinates>
     <extrude>1</extrude>
    </Point>
   </Placemark>
   <Placemark>
    <name>2 </name>
    <styleUrl>#BalloonStyle</styleUrl>
    <description><![CDATA[Index: 2
Waypoint
Alt AMSL: 56.00 m
Alt Rel: 50.00 m
Lat: 51.4619248
Lon: -0.3163018
]]></description>
    <Point>
     <altitudeMode>absolute</altitudeMode>
     <coordinates>-0.3163018,51.4619248,56.00</coordinates>
     <extrude>1</extrude>
    </Point>
   </Placemark>
   <Placemark>
    <name>3 </name>
    <styleUrl>#BalloonStyle</styleUrl>
    <description><![CDATA[Index: 3
Waypoint
Alt AMSL: 56.00 m
Alt Rel: 50.00 m
Lat: 51.4619184
Lon: -0.3161199
]]></description>
    <Point>
     <altitudeMode>absolute</altitudeMode>
     <coordinates>-0.3161199,51.4619184,56.00</coordinates>
     <extrude>1</extrude>
    </Point>
   </Placemark>
   <Placemark>
    <name>4 </name>
    <styleUrl>#BalloonStyle</styleUrl>
    <description><![CDATA[Index: 4
Waypoint
Alt AMSL: 56.00 m
Alt Rel: 50.00 m
Lat: 51.4619462
Lon: -0.3160702
]]></description>
    <Point>
     <altitudeMode>absolute</altitudeMode>
     <coordinates>-0.3160702,51.4619462,56.00</coordinates>
     <extrude>1</extrude>
    </Point>
   </Placemark>
   <Placemark>
    <name>5 </name>
    <styleUrl>#BalloonStyle</styleUrl>
    <description><![CDATA[Index: 5
Waypoint
Alt AMSL: 56.00 m
Alt Rel: 50.00 m
Lat: 51.4618671
Lon: -0.3159913
]]></description>
    <Point>
     <altitudeMode>absolute</altitudeMode>
     <coordinates>-0.3159913,51.4618671,56.00</coordinates>
     <extrude>1</extrude>
    </Point>
   </Placemark>
   <Placemark>
    <name>6 </name>
    <styleUrl>#BalloonStyle</styleUrl>
    <description><![CDATA[Index: 6
Waypoint
Alt AMSL: 56.00 m
Alt Rel: 50.00 m
Lat: 51.4617955
Lon: -0.3159089
]]></description>
    <Point>
     <altitudeMode>absolute</altitudeMode>
     <coordinates>-0.3159089,51.4617955,56.00</coordinates>
     <extrude>1</extrude>
    </Point>
   </Placemark>
   <Placemark>
    <name>7 </name>
    <styleUrl>#BalloonStyle</styleUrl>
    <description><![CDATA[Index: 7
Waypoint
Alt AMSL: 56.00 m
Alt Rel: 50.00 m
Lat: 51.4617634
Lon: -0.3160273
]]></description>
    <Point>
     <altitudeMode>absolute</altitudeMode>
     <coordinates>-0.3160273,51.4617634,56.00</coordinates>
     <extrude>1</extrude>
    </Point>
   </Placemark>
   <Placemark>
    <name>8 </name>
    <styleUrl>#BalloonStyle</styleUrl>
    <description><![CDATA[Index: 8
Waypoint
Alt AMSL: 56.00 m
Alt Rel: 50.00 m
Lat: 51.4618029
Lon: -0.3158111
]]></description>
    <Point>
     <altitudeMode>absolute</altitudeMode>
     <coordinates>-0.3158111,51.4618029,56.00</coordinates>
     <extrude>1</extrude>
    </Point>
   </Placemark>
   <Placemark>
    <name>9 </name>
    <styleUrl>#BalloonStyle</styleUrl>
    <description><![CDATA[Index: 9
Waypoint
Alt AMSL: 56.00 m
Alt Rel: 50.00 m
Lat: 51.4618468
Lon: -0.3158677
]]></description>
    <Point>
     <altitudeMode>absolute</altitudeMode>
     <coordinates>-0.3158677,51.4618468,56.00</coordinates>
     <extrude>1</extrude>
    </Point>
   </Placemark>
   <Placemark>
    <name>10 </name>
    <styleUrl>#BalloonStyle</styleUrl>
    <description><![CDATA[Index: 10
Waypoint
Alt AMSL: 56.00 m
Alt Rel: 50.00 m
Lat: 51.4618179
Lon: -0.3161216
]]></description>
    <Point>
     <altitudeMode>absolute</altitudeMode>
     <coordinates>-0.3161216,51.4618179,56.00</coordinates>
     <extrude>1</extrude>
    </Point>
   </Placemark>
   <Placemark>
    <name>11 </name>
    <styleUrl>#BalloonStyle</styleUrl>
    <description><![CDATA[Index: 11
Waypoint
Alt AMSL: 56.00 m
Alt Rel: 50.00 m
Lat: 51.4617185
Lon: -0.3159415
]]></description>
    <Point>
     <altitudeMode>absolute</altitudeMode>
     <coordinates>-0.3159415,51.4617185,56.00</coordinates>
     <extrude>1</extrude>
    </Point>
   </Placemark>
   <Placemark>
    <name>12 </name>
    <styleUrl>#BalloonStyle</styleUrl>
    <description><![CDATA[Index: 12
Waypoint
Alt AMSL: 56.00 m
Alt Rel: 50.00 m
Lat: 51.4617003
Lon: -0.3158369
]]></description>
    <Point>
     <altitudeMode>absolute</altitudeMode>
     <coordinates>-0.3158369,51.4617003,56.00</coordinates>
     <extrude>1</extrude>
    </Point>
   </Placemark>
   <Placemark>
    <name>13 </name>
    <styleUrl>#BalloonStyle</styleUrl>
    <description><![CDATA[Index: 13
Waypoint
Alt AMSL: 56.00 m
Alt Rel: 50.00 m
Lat: 51.4617078
Lon: -0.3157614
]]></description>
    <Point>
     <altitudeMode>absolute</altitudeMode>
     <coordinates>-0.3157614,51.4617078,56.00</coordinates>
     <extrude>1</extrude>
    </Point>
   </Placemark>
   <Placemark>
    <name>14 </name>
    <styleUrl>#BalloonStyle</styleUrl>
    <description><![CDATA[Index: 14
Waypoint
Alt AMSL: 56.00 m
Alt Rel: 50.00 m
Lat: 51.4618799
Lon: -0.3160805
]]></description>
    <Point>
     <altitudeMode>absolute</altitudeMode>
     <coordinates>-0.3160805,51.4618799,56.00</coordinates>
     <extrude>1</extrude>
    </Point>
   </Placemark>
   <Placemark>
    <name>15 </name>
    <styleUrl>#BalloonStyle</styleUrl>
    <description><![CDATA[Index: 15
Waypoint
Alt AMSL: 56.00 m
Alt Rel: 50.00 m
Lat: 51.4619323
Lon: -0.3159587
]]></description>
    <Point>
     <altitudeMode>absolute</altitudeMode>
     <coordinates>-0.3159587,51.4619323,56.00</coordinates>
     <extrude>1</extrude>
    </Point>
   </Placemark>
   <Placemark>
    <name>16 </name>
    <styleUrl>#BalloonStyle</styleUrl>
    <description><![CDATA[Index: 16
Waypoint
Alt AMSL: 56.00 m
Alt Rel: 50.00 m
Lat: 51.4619654
Lon: -0.3161817
]]></description>
    <Point>
     <altitudeMode>absolute</altitudeMode>
     <coordinates>-0.3161817,51.4619654,56.00</coordinates>
     <extrude>1</extrude>
    </Point>
   </Placemark>
   <Placemark>
    <name>17 </name>
    <styleUrl>#BalloonStyle</styleUrl>
    <description><![CDATA[Index: 17
Waypoint
Alt AMSL: 56.00 m
Alt Rel: 50.00 m
Lat: 51.4618500
Lon: -0.3161920
]]></description>
    <Point>
     <altitudeMode>absolute</altitudeMode>
     <coordinates>-0.3161920,51.4618500,56.00</coordinates>
     <extrude>1</extrude>
    </Point>
   </Placemark>
   <Placemark>
    <name>18 </name>
    <styleUrl>#BalloonStyle</styleUrl>
    <description><![CDATA[Index: 18
Waypoint
Alt AMSL: 56.00 m
Alt Rel: 50.00 m
Lat: 51.4620669
Lon: -0.3162246
]]></description>
    <Point>
     <altitudeMode>absolute</altitudeMode>
     <coordinates>-0.3162246,51.4620669,56.00</coordinates>
     <extrude>1</extrude>
    </Point>
   </Placemark>
  </Folder>
  <Placemark>
   <styleUrl>#MissionLineStyle</styleUrl>
   <name>Flight Path</name>
   <visibility>1</visibility>
   <LookAt>
    <latitude>51.4621112</latitude>
    <longitude>-0.3162915</longitude>
    <altitude>-0.32</altitude>
    <heading>-100</heading>
    <tilt>45</tilt>
    <range>2500</range>
   </LookAt>
   <LineString>
    <extruder>1</extruder>
    <tessellate>1</tessellate>
    <altitudeMode>absolute</altitudeMode>
    <coordinates>-0.3162915,51.4621112,6.00
-0.3163018,51.4619975,56.00
-0.3163018,51.4619248,56.00
-0.3161199,51.4619184,56.00
-0.3160702,51.4619462,56.00
-0.3159913,51.4618671,56.00
-0.3159089,51.4617955,56.00
-0.3160273,51.4617634,56.00
-0.3158111,51.4618029,56.00
-0.3158677,51.4618468,56.00
-0.3161216,51.4618179,56.00
-0.3159415,51.4617185,56.00
-0.3158369,51.4617003,56.00
-0.3157614,51.4617078,56.00
-0.3160805,51.4618799,56.00
-0.3159587,51.4619323,56.00
-0.3161817,51.4619654,56.00
-0.3161920,51.4618500,56.00
-0.3162246,51.4620669,56.00
</coordinates>
   </LineString>
  </Placemark>
 </Document>
</kml>
